#dP2018  5 30  0  0  0.00000000      96 __u+U ITR00 FIT  IAC
## 2003 259200.00000000   900.00000000 58268 0.0000000000000
+   86   C01C02C04C05C06C07C08C09C10C11C12C13C14E01E02E03E04
+        E05E07E08E09E11E12E14E18E19E24E26E30G01G02G03G05G06
+        G07G08G09G10G11G12G13G14G15G16G17G18G19G20G21G22G23
+        G24G25G26G27G28G29G30G31G32J01J02J03R01R02R03R04R05
+        R07R08R09R10R11R13R14R15R16R17R18R19R20R21R22R23R24
+        R26  0  0  0  0  0  0  0  0  0  0  0  0  0  0  0  0
++        13 12 13 12  9  9  9  9  9  8  8  8  8  6  6  6  6
++         6  7  6  6  6  7  6  7  7  6  7  6  4  3  3  4  3
++         3  4  3  4  4  3  4  4  4  4  4  4  3  4  4  3  3
++         4  4  3  4  4  4  5  3  3 10 15 11  6  6  6  6  6
++         5  5  5  5  5  6  6  5  5  5  5  5  5  6  6  5  6
++        11  0  0  0  0  0  0  0  0  0  0  0  0  0  0  0  0
%c M  cc GPS ccc cccc cccc cccc cccc ccccc ccccc ccccc ccccc
%c cc cc ccc ccc cccc cccc cccc cccc ccccc ccccc ccccc ccccc
%f  0.0000000  0.000000000  0.00000000000  0.000000000000000
%f  0.0000000  0.000000000  0.00000000000  0.000000000000000
%i    0    0    0    0      0      0      0      0         0
%i    0    0    0    0      0      0      0      0         0
/* INFORMATION & ANALYSIS CENTER (IAC) OF MCC   (RAPID DATA)
/* S/V CLOCKS ARE ALIGNED TO GPS & GLONASS TIME RESPECTIVELY
/* USING THE BROADCAST EPHEMERIS                            
/* PCV:IGS14_2000 OL/AL:FES2004  NONE     YN ORB:CoN CLK:CoN
*  2018 05 30  0  0  0.00000000
PC01 -32277.389735  27134.390743    495.571500   -234.189886
PC02   4369.807736  41921.257893  -1258.029573    400.251586
PC04      0.000000      0.000000      0.000000   -241.918989
PC05  21937.166021  35991.155958   -926.608244    396.825325
PC06 -20875.338488  36336.192352   2894.071131     35.190281
PC07  -8291.053853  29738.388156  29009.005494    129.778589
PC08 -20855.877034  18746.743548 -31500.882810    364.445966
PC09 -10469.692090  36760.189548  17613.455418    -84.560600
PC10   5842.470273  37605.846549  18649.436520   -269.737717
PC11   8723.403765 -18154.270961  19336.997442   -528.279040
PC12  23860.363000 -13949.228368   3554.849011    459.560465
PC13  -5374.001730  23276.030447 -34744.948685   -353.305490
PC14   4423.734150 -27376.552315   3422.759855    379.285596
PE01  16243.172585  -4475.195952 -24343.057263   -356.274778
PE02 -16221.837041   4503.350166  24341.159616     14.872412
PE03 -19686.809953  15666.294817 -15592.117667    -37.673809
PE04  11398.887326 -27253.288739  -1890.609058    -44.420601
PE05 -16476.946809  -5174.442437 -24029.767911    255.832135
PE07   3649.563107  22916.468824  18394.768634     24.361598
PE08 -11135.456432  27365.296762   1915.617173   6574.677946
PE09  -3721.957585 -22852.183604 -18420.468889   6777.923177
PE11 -11623.069588 -14459.047893  23055.199769    516.734364
PE12  11504.502066 -15987.377441  22107.072592   4267.221784
PE14 -12274.454061  -9007.092858  17707.056680   6575.116291
PE18  18306.495920  11555.850749 -24382.814206   6171.474857
PE19  19764.378111 -14035.798130  17001.867193     22.722897
PE24 -14145.034048 -25612.959132  -4537.033245   6680.506031
PE26  27183.940664   4821.497727 -10677.155070   5881.276328
PE30  -1467.151122  21369.406201  20415.463700   5800.364671
PG01  21058.026492  13922.304579  -8887.138112    -51.821912
PG02   -240.584042 -16167.283080  21664.388538    100.940119
PG03  13083.940986  18875.799750  13375.674829     79.744371
PG05  -1612.028476 -25850.598552   5250.540346     -7.052517
PG06  15066.718442  -9175.734254  19896.627745    400.004914
PG07  25598.844775   5009.776580  -5945.736956    183.781915
PG08   4797.624103  15166.427420 -21196.681035   -102.954520
PG09  20846.992971  -3097.136048  16141.136593    514.378057
PG10 -12246.949365  11712.892518 -20367.453967    186.762450
PG11  18114.034314  11266.567288 -16287.522642   -735.213307
PG12  -9860.979389 -22274.735002  10620.584679    330.655595
PG13   5204.643254 -18646.023485 -18293.137852    -94.007525
PG14 -16508.835267  19155.778508   8111.892905    -97.158586
PG15  -8061.689132 -14285.028193 -21056.407055   -353.484377
PG16  -1050.626991  25664.964118   5659.276594     23.197821
PG17  21289.623488 -15704.556550   -987.009649    -93.273025
PG18  14085.685146  16304.098904 -16108.164560     15.265037
PG19  18656.145257 -17991.832924   5925.989515   -432.521266
PG20 -16971.216885  -3563.728550 -20282.547645    509.323203
PG21 -24958.394480  -1199.227490  -8173.083154   -388.477338
PG22  10463.775667  23789.299950   5763.025633   -408.584261
PG23  13734.289422   8559.747422  21401.939848   -216.516967
PG24 -18770.666573 -14799.848454 -11995.581994    -50.429089
PG25 -15221.012602  -9568.374021  19446.191448   -592.851143
PG26  -6488.977928  20846.965590  15019.452041   -132.765664
PG27  -7677.870269  20269.958846 -15248.352187    367.759548
PG28  13173.081335  -8048.577176 -21003.390302    719.416559
PG29 -19482.648169   -238.946843  18020.333569    441.500180
PG30  22102.848285  -2420.912434 -14642.900449     68.528093
PG31 -14004.062430   9843.592854  20450.778219    118.203167
PG32 -20913.894261  16127.033077  -2302.837260   -502.391903
PJ01 -19739.377984  29186.065135 -18507.747281   -240.825408
PJ02      0.000000      0.000000      0.000000    -21.389732
PJ03 -34099.528310  24776.707843   6117.080655    -14.251773
PR01  12342.266595 -13469.536058  17802.319206     26.927113
PR02   6724.752508 -24632.729127     51.494612    312.225395
PR03  -2747.342971 -19501.665979 -16189.846478    133.547032
PR04 -10710.645817  -2447.728308 -22997.946555    262.814324
PR05 -12112.410671  15271.120317 -16462.403585    -16.241084
PR07   3043.848306  19126.614348  16621.587439    -38.778607
PR08  10553.194250   3160.767514  23063.854970     22.959280
PR09   2424.464832  16099.484374  19671.145364     25.729576
PR10  15227.574810  19623.337718   5970.221161     25.233215
PR11  19362.509821  11733.207728 -11788.463364    -30.003518
PR13  -2899.113093 -15894.538379 -19757.563235    -10.886601
PR14 -15109.319305 -19591.506469  -6170.850833     27.698578
PR15 -19388.935330 -14474.857740   8230.016395    -10.936040
PR16 -12608.945915   2334.866711  22043.808308     93.701389
PR17  -7827.486071  -8773.606957  22646.367608    136.169293
PR18 -21759.751206   -612.477462  13251.621914    197.393271
PR19 -24068.613392   7516.733405  -3838.698138    -53.608314
PR20 -11254.386439  11760.954696 -19613.704620   -339.747561
PR21   8117.693879   8576.883959 -22608.692791     14.249347
PR22  22861.900842   -489.171094 -11441.803211    -46.964047
PR23  22489.037302  -9335.375849   7605.975040    156.602690
PR24  10194.765204 -11998.012734  20049.959898   -166.928442
PR26      0.000000      0.000000      0.000000 999999.999999
EOF
